start=new Date('2022-12-18T00:00:00.000Z').valueOf();
sats=[{"FILE":"3706393","EPHEMERIS_TYPE":"0","RCS_SIZE":"LARGE","TLE_LINE1":"1 52094U 22029G   22351.46480000 -.00001466  00000-0 -74048-4 0  9996","MEAN_MOTION_DOT":"-0.00001466","OBJECT_NAME":"STARLINK-3714","MEAN_ELEMENT_THEORY":"SGP4","NORAD_CAT_ID":"52094","MEAN_MOTION_DDOT":"0.0000000000000","APOAPSIS":"541.294","LAUNCH_DATE":"2022-03-19","BSTAR":"-0.00007404800000","SEMIMAJOR_AXIS":"6917.900","OBJECT_TYPE":"PAYLOAD","REF_FRAME":"TEME","PERIOD":"95.438","EPOCH":"2022-12-17T11:09:18.720000","SITE":"AFETR","CENTER_NAME":"EARTH","DECAY_DATE":null,"REV_AT_EPOCH":"4278","CLASSIFICATION_TYPE":"U","INCLINATION":"53.2189","OBJECT_ID":"2022-029G","ECCENTRICITY":"0.00022110","TIME_SYSTEM":"UTC","RA_OF_ASC_NODE":"338.3879","PERIAPSIS":"538.235","MEAN_ANOMALY":"322.6711","ARG_OF_PERICENTER":"37.4435","MEAN_MOTION":"15.08833632","TLE_LINE2":"2 52094  53.2189 338.3879 0002211  37.4435 322.6711 15.08833632 42785","GP_ID":"220719680","COUNTRY_CODE":"US","ELEMENT_SET_NO":"999"},{"TIME_SYSTEM":"UTC","PERIAPSIS":"537.941","RA_OF_ASC_NODE":"336.9451","ECCENTRICITY":"0.00026150","COUNTRY_CODE":"US","GP_ID":"220757397","ELEMENT_SET_NO":"999","MEAN_ANOMALY":"325.2088","MEAN_MOTION":"15.08838573","TLE_LINE2":"2 52095  53.2174 336.9451 0002615  34.9075 325.2088 15.08838573 42831","ARG_OF_PERICENTER":"34.9075","MEAN_MOTION_DDOT":"0.0000000000000","NORAD_CAT_ID":"52095","MEAN_ELEMENT_THEORY":"SGP4","SEMIMAJOR_AXIS":"6917.885","LAUNCH_DATE":"2022-03-19","BSTAR":"0.00005529500000","APOAPSIS":"541.559","EPHEMERIS_TYPE":"0","FILE":"3707070","OBJECT_NAME":"STARLINK-3701","MEAN_MOTION_DOT":"0.00000592","TLE_LINE1":"1 52095U 22029H   22351.78495704  .00000592  00000-0  55295-4 0  9999","RCS_SIZE":"LARGE","DECAY_DATE":null,"CENTER_NAME":"EARTH","REV_AT_EPOCH":"4283","CLASSIFICATION_TYPE":"U","SITE":"AFETR","OBJECT_ID":"2022-029H","INCLINATION":"53.2174","EPOCH":"2022-12-17T18:50:20.288256","PERIOD":"95.438","OBJECT_TYPE":"PAYLOAD","REF_FRAME":"TEME"},{"MEAN_ELEMENT_THEORY":"SGP4","MEAN_MOTION_DDOT":"0.0000000000000","NORAD_CAT_ID":"52096","APOAPSIS":"541.728","SEMIMAJOR_AXIS":"6917.902","BSTAR":"-0.00002822000000","LAUNCH_DATE":"2022-03-19","EPHEMERIS_TYPE":"0","FILE":"3705911","MEAN_MOTION_DOT":"-0.00000738","TLE_LINE1":"1 52096U 22029J   22351.43260134 -.00000738  00000-0 -28220-4 0  9991","RCS_SIZE":"LARGE","OBJECT_NAME":"STARLINK-3717","SITE":"AFETR","CENTER_NAME":"EARTH","DECAY_DATE":null,"REV_AT_EPOCH":"4290","CLASSIFICATION_TYPE":"U","INCLINATION":"53.2178","OBJECT_ID":"2022-029J","PERIOD":"95.438","REF_FRAME":"TEME","OBJECT_TYPE":"PAYLOAD","EPOCH":"2022-12-17T10:22:56.755776","TIME_SYSTEM":"UTC","RA_OF_ASC_NODE":"328.5213","PERIAPSIS":"537.807","ECCENTRICITY":"0.00028340","GP_ID":"220707484","COUNTRY_CODE":"US","ELEMENT_SET_NO":"999","MEAN_ANOMALY":"332.6282","TLE_LINE2":"2 52096  53.2178 328.5213 0002834  27.4859 332.6282 15.08832793 42903","MEAN_MOTION":"15.08832793","ARG_OF_PERICENTER":"27.4859"},{"OBJECT_TYPE":"PAYLOAD","REF_FRAME":"TEME","PERIOD":"95.438","EPOCH":"2022-12-17T09:23:20.207904","INCLINATION":"53.2176","OBJECT_ID":"2022-029L","SITE":"AFETR","REV_AT_EPOCH":"4277","DECAY_DATE":null,"CENTER_NAME":"EARTH","CLASSIFICATION_TYPE":"U","RCS_SIZE":"LARGE","MEAN_MOTION_DOT":"-0.00001791","TLE_LINE1":"1 52098U 22029L   22351.39120611 -.00001791  00000-0 -94443-4 0  9993","OBJECT_NAME":"STARLINK-3665","FILE":"3706044","EPHEMERIS_TYPE":"0","APOAPSIS":"541.351","LAUNCH_DATE":"2022-03-19","BSTAR":"-0.00009444300000","SEMIMAJOR_AXIS":"6917.914","MEAN_ELEMENT_THEORY":"SGP4","NORAD_CAT_ID":"52098","MEAN_MOTION_DDOT":"0.0000000000000","ARG_OF_PERICENTER":"38.1661","MEAN_MOTION":"15.08829015","TLE_LINE2":"2 52098  53.2176 338.7170 0002273  38.1661 321.9492 15.08829015 42777","MEAN_ANOMALY":"321.9492","ELEMENT_SET_NO":"999","GP_ID":"220712043","COUNTRY_CODE":"US","ECCENTRICITY":"0.00022730","RA_OF_ASC_NODE":"338.7170","PERIAPSIS":"538.207","TIME_SYSTEM":"UTC"},{"TIME_SYSTEM":"UTC","PERIAPSIS":"538.405","RA_OF_ASC_NODE":"338.4582","ECCENTRICITY":"0.00019710","COUNTRY_CODE":"US","GP_ID":"220706488","ELEMENT_SET_NO":"999","MEAN_ANOMALY":"321.3601","ARG_OF_PERICENTER":"38.7532","MEAN_MOTION":"15.08832465","TLE_LINE2":"2 52100  53.2184 338.4582 0001971  38.7532 321.3601 15.08832465 42781","NORAD_CAT_ID":"52100","MEAN_MOTION_DDOT":"0.0000000000000","MEAN_ELEMENT_THEORY":"SGP4","LAUNCH_DATE":"2022-03-19","BSTAR":"0.00009679500000","SEMIMAJOR_AXIS":"6917.903","APOAPSIS":"541.132","FILE":"3705911","EPHEMERIS_TYPE":"0","OBJECT_NAME":"STARLINK-3702","RCS_SIZE":"LARGE","MEAN_MOTION_DOT":"0.00001252","TLE_LINE1":"1 52100U 22029N   22351.45008055  .00001252  00000-0  96795-4 0  9993","CENTER_NAME":"EARTH","DECAY_DATE":null,"REV_AT_EPOCH":"4278","CLASSIFICATION_TYPE":"U","SITE":"AFETR","OBJECT_ID":"2022-029N","INCLINATION":"53.2184","EPOCH":"2022-12-17T10:48:06.959520","OBJECT_TYPE":"PAYLOAD","REF_FRAME":"TEME","PERIOD":"95.438"},{"MEAN_ELEMENT_THEORY":"SGP4","NORAD_CAT_ID":"52101","MEAN_MOTION_DDOT":"0.0000000000000","APOAPSIS":"541.232","LAUNCH_DATE":"2022-03-19","BSTAR":"0.00013745000000","SEMIMAJOR_AXIS":"6917.917","FILE":"3707070","EPHEMERIS_TYPE":"0","RCS_SIZE":"LARGE","MEAN_MOTION_DOT":"0.00001899","TLE_LINE1":"1 52101U 22029P   22351.70768459  .00001899  00000-0  13745-3 0  9993","OBJECT_NAME":"STARLINK-3703","SITE":"AFETR","CENTER_NAME":"EARTH","DECAY_DATE":null,"REV_AT_EPOCH":"4281","CLASSIFICATION_TYPE":"U","INCLINATION":"53.2193","OBJECT_ID":"2022-029P","OBJECT_TYPE":"PAYLOAD","REF_FRAME":"TEME","PERIOD":"95.438","EPOCH":"2022-12-17T16:59:03.948576","TIME_SYSTEM":"UTC","RA_OF_ASC_NODE":"337.2973","PERIAPSIS":"538.332","ECCENTRICITY":"0.00020960","GP_ID":"220757897","COUNTRY_CODE":"US","ELEMENT_SET_NO":"999","MEAN_ANOMALY":"316.2310","ARG_OF_PERICENTER":"43.8849","MEAN_MOTION":"15.08827912","TLE_LINE2":"2 52101  53.2193 337.2973 0002096  43.8849 316.2310 15.08827912 42815"},{"MEAN_ELEMENT_THEORY":"SGP4","MEAN_MOTION_DDOT":"0.0000000000000","NORAD_CAT_ID":"52102","APOAPSIS":"541.415","SEMIMAJOR_AXIS":"6917.860","BSTAR":"0.00004754100000","LAUNCH_DATE":"2022-03-19","EPHEMERIS_TYPE":"0","FILE":"3707070","MEAN_MOTION_DOT":"0.00000468","TLE_LINE1":"1 52102U 22029Q   22351.65067315  .00000468  00000-0  47541-4 0  9994","RCS_SIZE":"LARGE","OBJECT_NAME":"STARLINK-3709","SITE":"AFETR","DECAY_DATE":null,"CENTER_NAME":"EARTH","REV_AT_EPOCH":"4294","CLASSIFICATION_TYPE":"U","INCLINATION":"53.2187","OBJECT_ID":"2022-029Q","PERIOD":"95.437","REF_FRAME":"TEME","OBJECT_TYPE":"PAYLOAD","EPOCH":"2022-12-17T15:36:58.160160","TIME_SYSTEM":"UTC","RA_OF_ASC_NODE":"327.5504","PERIAPSIS":"538.035","ECCENTRICITY":"0.00024430","GP_ID":"220758149","COUNTRY_CODE":"US","ELEMENT_SET_NO":"999","MEAN_ANOMALY":"329.6181","TLE_LINE2":"2 52102  53.2187 327.5504 0002443  30.4953 329.6181 15.08846698 42945","MEAN_MOTION":"15.08846698","ARG_OF_PERICENTER":"30.4953"},{"EPOCH":"2022-12-17T10:12:21.265632","REF_FRAME":"TEME","OBJECT_TYPE":"PAYLOAD","PERIOD":"95.438","OBJECT_ID":"2022-029R","INCLINATION":"53.2187","DECAY_DATE":null,"CENTER_NAME":"EARTH","REV_AT_EPOCH":"4290","CLASSIFICATION_TYPE":"U","SITE":"AFETR","OBJECT_NAME":"STARLINK-3705","RCS_SIZE":"LARGE","TLE_LINE1":"1 52103U 22029R   22351.42524613 -.00001191  00000-0 -56723-4 0  9997","MEAN_MOTION_DOT":"-0.00001191","FILE":"3706395","EPHEMERIS_TYPE":"0","LAUNCH_DATE":"2022-03-19","BSTAR":"-0.00005672300000","SEMIMAJOR_AXIS":"6917.905","APOAPSIS":"541.445","NORAD_CAT_ID":"52103","MEAN_MOTION_DDOT":"0.0000000000000","MEAN_ELEMENT_THEORY":"SGP4","ARG_OF_PERICENTER":"35.7686","TLE_LINE2":"2 52103  53.2187 328.5471 0002421  35.7686 324.3468 15.08832013 42909","MEAN_MOTION":"15.08832013","MEAN_ANOMALY":"324.3468","ELEMENT_SET_NO":"999","COUNTRY_CODE":"US","GP_ID":"220719726","ECCENTRICITY":"0.00024210","PERIAPSIS":"538.095","RA_OF_ASC_NODE":"328.5471","TIME_SYSTEM":"UTC"},{"EPOCH":"2022-12-17T08:27:44.994240","PERIOD":"95.438","OBJECT_TYPE":"PAYLOAD","REF_FRAME":"TEME","CENTER_NAME":"EARTH","DECAY_DATE":null,"REV_AT_EPOCH":"4289","CLASSIFICATION_TYPE":"U","SITE":"AFETR","OBJECT_ID":"2022-029T","INCLINATION":"53.2189","EPHEMERIS_TYPE":"0","FILE":"3705911","OBJECT_NAME":"STARLINK-3706","MEAN_MOTION_DOT":"-0.00001201","TLE_LINE1":"1 52105U 22029T   22351.35260410 -.00001201  00000-0 -57313-4 0  9991","RCS_SIZE":"LARGE","MEAN_MOTION_DDOT":"0.0000000000000","NORAD_CAT_ID":"52105","MEAN_ELEMENT_THEORY":"SGP4","SEMIMAJOR_AXIS":"6917.908","LAUNCH_DATE":"2022-03-19","BSTAR":"-0.00005731300000","APOAPSIS":"541.859","MEAN_ANOMALY":"332.8411","TLE_LINE2":"2 52105  53.2189 328.8759 0003015  27.2739 332.8411 15.08830912 42896","MEAN_MOTION":"15.08830912","ARG_OF_PERICENTER":"27.2739","COUNTRY_CODE":"US","GP_ID":"220705990","ELEMENT_SET_NO":"999","ECCENTRICITY":"0.00030150","TIME_SYSTEM":"UTC","PERIAPSIS":"537.687","RA_OF_ASC_NODE":"328.8759"},{"CENTER_NAME":"EARTH","DECAY_DATE":null,"REV_AT_EPOCH":"4281","CLASSIFICATION_TYPE":"U","SITE":"AFETR","OBJECT_ID":"2022-029U","INCLINATION":"53.2177","EPOCH":"2022-12-17T16:53:45.454848","OBJECT_TYPE":"PAYLOAD","REF_FRAME":"TEME","PERIOD":"95.438","NORAD_CAT_ID":"52106","MEAN_MOTION_DDOT":"0.0000000000000","MEAN_ELEMENT_THEORY":"SGP4","LAUNCH_DATE":"2022-03-19","BSTAR":"-0.00006384500000","SEMIMAJOR_AXIS":"6917.891","APOAPSIS":"541.468","FILE":"3707070","EPHEMERIS_TYPE":"0","OBJECT_NAME":"STARLINK-3670","RCS_SIZE":"LARGE","TLE_LINE1":"1 52106U 22029U   22351.70399832 -.00001304  00000-0 -63845-4 0  9993","MEAN_MOTION_DOT":"-0.00001304","COUNTRY_CODE":"US","GP_ID":"220757398","ELEMENT_SET_NO":"999","MEAN_ANOMALY":"325.8180","ARG_OF_PERICENTER":"34.2972","MEAN_MOTION":"15.08836506","TLE_LINE2":"2 52106  53.2177 337.3137 0002475  34.2972 325.8180 15.08836506 42817","TIME_SYSTEM":"UTC","PERIAPSIS":"538.044","RA_OF_ASC_NODE":"337.3137","ECCENTRICITY":"0.00024750"}];
